{"type": "FeatureCollection", "features": [ {"type": "Feature", "properties": {"norad_id": 66997, "name": "2025-292E", "group": "last-30-days", "lat": -74.11016768895975, "lon": -144.11181858658398, "alt_km": 550.4538102254237, "timestamp": "2025-12-17T13:48:36.282316+00:00", "meta": {"OBJECT_NAME": "2025-292E", "OBJECT_ID": "2025-292E", "EPOCH": "2025-12-17T07:53:13.224192", "MEAN_MOTION": 15.04711177, "ECCENTRICITY": 0.0013376, "INCLINATION": 97.655, "RA_OF_ASC_NODE": 63.8389, "ARG_OF_PERICENTER": 259.7873, "MEAN_ANOMALY": 100.1845, "EPHEMERIS_TYPE": 0, "CLASSIFICATION_TYPE": "U", "NORAD_CAT_ID": 66997, "ELEMENT_SET_NO": 999, "REV_AT_EPOCH": 107, "BSTAR": 0.00024342783, "MEAN_MOTION_DOT": 3.371e-05, "MEAN_MOTION_DDOT": 0}, "tle": {"line1": "1 66997U 25292E   25351.32862528  .00003371  00000+0  24343-3 0  9991", "line2": "2 66997  97.6550  63.8389 0013376 259.7873 100.1845 15.04711177  1070"}}, "geometry": {"type": "Point", "coordinates": [-144.11181858658398, -74.11016768895975]}}, {"type": "Feature", "properties": {"norad_id": 66998, "name": "2025-292F", "group": "last-30-days", "lat": -77.54087132101408, "lon": -153.42313975857923, "alt_km": 549.19113825159, "timestamp": "2025-12-17T13:48:36.282326+00:00", "meta": {"OBJECT_NAME": "2025-292F", "OBJECT_ID": "2025-292F", "EPOCH": "2025-12-17T06:16:24.796704", "MEAN_MOTION": 15.04873795, "ECCENTRICITY": 0.00144842, "INCLINATION": 97.657, "RA_OF_ASC_NODE": 63.7754, "ARG_OF_PERICENTER": 260.9299, "MEAN_ANOMALY": 99.0289, "EPHEMERIS_TYPE": 0, "CLASSIFICATION_TYPE": "U", "NORAD_CAT_ID": 66998, "ELEMENT_SET_NO": 999, "REV_AT_EPOCH": 107, "BSTAR": 0.00031704322, "MEAN_MOTION_DOT": 4.431e-05, "MEAN_MOTION_DDOT": 0}, "tle": {"line1": "1 66998U 25292F   25351.26139811  .00004431  00000+0  31704-3 0  9994", "line2": "2 66998  97.6570  63.7754 0014484 260.9299  99.0289 15.04873795  1078"}}, "geometry": {"type": "Point", "coordinates": [-153.42313975857923, -77.54087132101408]}}, {"type": "Feature", "properties": {"norad_id": 66999, "name": "2025-292G", "group": "last-30-days", "lat": -78.81234643589208, "lon": -158.7778300896145, "alt_km": 549.3378066435343, "timestamp": "2025-12-17T13:48:36.282335+00:00", "meta": {"OBJECT_NAME": "2025-292G", "OBJECT_ID": "2025-292G", "EPOCH": "2025-12-17T04:40:14.447424", "MEAN_MOTION": 15.04936893, "ECCENTRICITY": 0.00139996, "INCLINATION": 97.6578, "RA_OF_ASC_NODE": 63.7106, "ARG_OF_PERICENTER": 263.3136, "MEAN_ANOMALY": 96.6497, "EPHEMERIS_TYPE": 0, "CLASSIFICATION_TYPE": "U", "NORAD_CAT_ID": 66999, "ELEMENT_SET_NO": 999, "REV_AT_EPOCH": 106, "BSTAR": 0.00031608502, "MEAN_MOTION_DOT": 4.425e-05, "MEAN_MOTION_DDOT": 0}, "tle": {"line1": "1 66999U 25292G   25351.19461166  .00004425  00000+0  31609-3 0  9995", "line2": "2 66999  97.6578  63.7106 0013999 263.3136  96.6497 15.04936893  1067"}}, "geometry": {"type": "Point", "coordinates": [-158.7778300896145, -78.81234643589208]}}, {"type": "Feature", "properties": {"norad_id": 67000, "name": "2025-292H", "group": "last-30-days", "lat": -78.81163505055963, "lon": -158.77596332710704, "alt_km": 549.3666908580981, "timestamp": "2025-12-17T13:48:36.282345+00:00", "meta": {"OBJECT_NAME": "2025-292H", "OBJECT_ID": "2025-292H", "EPOCH": "2025-12-16T11:07:02.569152", "MEAN_MOTION": 15.04930133, "ECCENTRICITY": 0.00139568, "INCLINATION": 97.658, "RA_OF_ASC_NODE": 62.9852, "ARG_OF_PERICENTER": 266.081, "MEAN_ANOMALY": 93.882, "EPHEMERIS_TYPE": 0, "CLASSIFICATION_TYPE": "U", "NORAD_CAT_ID": 67000, "ELEMENT_SET_NO": 999, "REV_AT_EPOCH": 82, "BSTAR": 0.00033603551, "MEAN_MOTION_DOT": 4.707e-05, "MEAN_MOTION_DDOT": 0}, "tle": {"line1": "1 67000U 25292H   25350.46322418  .00004707  00000+0  33604-3 0  9994", "line2": "2 67000  97.6580  62.9852 0013956 266.0810  93.8820 15.04930133   828"}}, "geometry": {"type": "Point", "coordinates": [-158.77596332710704, -78.81163505055963]}}, {"type": "Feature", "properties": {"norad_id": 67001, "name": "2025-292J", "group": "last-30-days", "lat": -65.14351384438594, "lon": -132.80151366611483, "alt_km": 550.8897187110642, "timestamp": "2025-12-17T13:48:36.282359+00:00", "meta": {"OBJECT_NAME": "2025-292J", "OBJECT_ID": "2025-292J", "EPOCH": "2025-12-17T06:19:57.141120", "MEAN_MOTION": 15.04352295, "ECCENTRICITY": 0.00142323, "INCLINATION": 97.657, "RA_OF_ASC_NODE": 63.7721, "ARG_OF_PERICENTER": 251.7253, "MEAN_ANOMALY": 108.2425, "EPHEMERIS_TYPE": 0, "CLASSIFICATION_TYPE": "U", "NORAD_CAT_ID": 67001, "ELEMENT_SET_NO": 999, "REV_AT_EPOCH": 107, "BSTAR": 0.00033397842, "MEAN_MOTION_DOT": 4.606e-05, "MEAN_MOTION_DDOT": 0}, "tle": {"line1": "1 67001U 25292J   25351.26385580  .00004606  00000+0  33398-3 0  9991", "line2": "2 67001  97.6570  63.7721 0014232 251.7253 108.2425 15.04352295  1079"}}, "geometry": {"type": "Point", "coordinates": [-132.80151366611483, -65.14351384438594]}}, {"type": "Feature", "properties": {"norad_id": 67002, "name": "ZK-1A R/B", "group": "last-30-days", "lat": 28.998817049029604, "lon": -110.93981600522318, "alt_km": 535.9215974120125, "timestamp": "2025-12-17T13:48:36.282369+00:00", "meta": {"OBJECT_NAME": "ZK-1A R/B", "OBJECT_ID": "2025-292K", "EPOCH": "2025-12-17T03:54:22.442400", "MEAN_MOTION": 15.56018951, "ECCENTRICITY": 0.02149336, "INCLINATION": 97.7235, "RA_OF_ASC_NODE": 64.2994, "ARG_OF_PERICENTER": 349.7091, "MEAN_ANOMALY": 9.9795, "EPHEMERIS_TYPE": 0, "CLASSIFICATION_TYPE": "U", "NORAD_CAT_ID": 67002, "ELEMENT_SET_NO": 999, "REV_AT_EPOCH": 108, "BSTAR": 0.00072351721, "MEAN_MOTION_DOT": 0.00149333, "MEAN_MOTION_DDOT": 8.008052e-06}, "tle": {"line1": "1 67002U 25292K   25351.16275975  .00149333  80081-5  72352-3 0  9990", "line2": "2 67002  97.7235  64.2994 0214933 349.7091   9.9795 15.56018951  1088"}}, "geometry": {"type": "Point", "coordinates": [-110.93981600522318, 28.998817049029604]}}, {"type": "Feature", "properties": {"norad_id": 67059, "name": "HULIANWANG DIGUI 16A", "group": "last-30-days", "lat": -4.422727942505285, "lon": 175.54019478372027, "alt_km": 805.0529904626319, "timestamp": "2025-12-17T13:48:36.282378+00:00", "meta": {"OBJECT_NAME": "HULIANWANG DIGUI 16A", "OBJECT_ID": "2025-295A", "EPOCH": "2025-12-12T05:06:27.347328", "MEAN_MOTION": 14.25879966, "ECCENTRICITY": 0.00136284, "INCLINATION": 50.0035, "RA_OF_ASC_NODE": 14.4753, "ARG_OF_PERICENTER": 247.7813, "MEAN_ANOMALY": 112.1656, "EPHEMERIS_TYPE": 0, "CLASSIFICATION_TYPE": "U", "NORAD_CAT_ID": 67059, "ELEMENT_SET_NO": 999, "REV_AT_EPOCH": 4, "BSTAR": 3.434713e-06, "MEAN_MOTION_DOT": -1.52e-06, "MEAN_MOTION_DDOT": 0}, "tle": {"line1": "1 67059U 25295A   25346.21281652 -.00000152  00000+0  34347-5 0  9991", "line2": "2 67059  50.0035  14.4753 0013628 247.7813 112.1656 14.25879966    41"}}, "geometry": {"type": "Point", "coordinates": [175.54019478372027, -4.422727942505285]}}, {"type": "Feature", "properties": {"norad_id": 67060, "name": "HULIANWANG DIGUI 16B", "group": "last-30-days", "lat": -6.619102173526749, "lon": 177.40413415268935, "alt_km": 803.8792096837369, "timestamp": "2025-12-17T13:48:36.282388+00:00", "meta": {"OBJECT_NAME": "HULIANWANG DIGUI 16B", "OBJECT_ID": "2025-295B", "EPOCH": "2025-12-12T05:06:25.468992", "MEAN_MOTION": 14.26022254, "ECCENTRICITY": 0.0013423, "INCLINATION": 50.0012, "RA_OF_ASC_NODE": 14.4776, "ARG_OF_PERICENTER": 244.6732, "MEAN_ANOMALY": 115.2792, "EPHEMERIS_TYPE": 0, "CLASSIFICATION_TYPE": "U", "NORAD_CAT_ID": 67060, "ELEMENT_SET_NO": 999, "REV_AT_EPOCH": 4, "BSTAR": 4.398892e-06, "MEAN_MOTION_DOT": -1.5e-06, "MEAN_MOTION_DDOT": 0}, "tle": {"line1": "1 67060U 25295B   25346.21279478 -.00000150  00000+0  43989-5 0  9996", "line2": "2 67060  50.0012  14.4776 0013423 244.6732 115.2792 14.26022254    48"}}, "geometry": {"type": "Point", "coordinates": [177.40413415268935, -6.619102173526749]}}, {"type": "Feature", "properties": {"norad_id": 67062, "name": "HULIANWANG DIGUI 16D", "group": "last-30-days", "lat": -5.113105132169033, "lon": 176.122114212556, "alt_km": 805.5379243923235, "timestamp": "2025-12-17T13:48:36.282400+00:00", "meta": {"OBJECT_NAME": "HULIANWANG DIGUI 16D", "OBJECT_ID": "2025-295D", "EPOCH": "2025-12-12T05:06:24.477120", "MEAN_MOTION": 14.25916921, "ECCENTRICITY": 0.00124974, "INCLINATION": 50.0052, "RA_OF_ASC_NODE": 14.4731, "ARG_OF_PERICENTER": 251.2247, "MEAN_ANOMALY": 108.7311, "EPHEMERIS_TYPE": 0, "CLASSIFICATION_TYPE": "U", "NORAD_CAT_ID": 67062, "ELEMENT_SET_NO": 999, "REV_AT_EPOCH": 4, "BSTAR": 3.753899e-06, "MEAN_MOTION_DOT": -1.51e-06, "MEAN_MOTION_DDOT": 0}, "tle": {"line1": "1 67062U 25295D   25346.21278330 -.00000151  00000+0  37539-5 0  9999", "line2": "2 67062  50.0052  14.4731 0012497 251.2247 108.7311 14.25916921    46"}}, "geometry": {"type": "Point", "coordinates": [176.122114212556, -5.113105132169033]}}, {"type": "Feature", "properties": {"norad_id": 67064, "name": "HULIANWANG DIGUI 16F", "group": "last-30-days", "lat": -20.276662701712578, "lon": -170.16952973008546, "alt_km": 799.2725390551177, "timestamp": "2025-12-17T13:48:36.282410+00:00", "meta": {"OBJECT_NAME": "HULIANWANG DIGUI 16F", "OBJECT_ID": "2025-295F", "EPOCH": "2025-12-12T05:06:22.414752", "MEAN_MOTION": 14.26957674, "ECCENTRICITY": 0.00149026, "INCLINATION": 50.0027, "RA_OF_ASC_NODE": 14.4596, "ARG_OF_PERICENTER": 247.8107, "MEAN_ANOMALY": 112.1227, "EPHEMERIS_TYPE": 0, "CLASSIFICATION_TYPE": "U", "NORAD_CAT_ID": 67064, "ELEMENT_SET_NO": 999, "REV_AT_EPOCH": 4, "BSTAR": 2.6251967e-05, "MEAN_MOTION_DOT": -9.6e-07, "MEAN_MOTION_DDOT": 0}, "tle": {"line1": "1 67064U 25295F   25346.21275943 -.00000096  00000+0  26252-4 0  9995", "line2": "2 67064  50.0027  14.4596 0014902 247.8107 112.1227 14.26957674    44"}}, "geometry": {"type": "Point", "coordinates": [-170.16952973008546, -20.276662701712578]}}]}